ORBVIEW 2 (SEASTAR)     
1 24883U 97037A   25328.72195049  .00000358  00000+0  14108-3 0  9990
2 24883  98.8454 125.3440 0002541  34.0379 326.0968 14.35397103493413
SL-16 R/B               
1 25400U 98043G   25328.69587944  .00000095  00000+0  58606-4 0  9999
2 25400  98.8097 276.4157 0009200 325.0861  34.9714 14.26018869424027
SL-16 R/B               
1 25407U 98045B   25328.61179101  .00000249  00000+0  15003-3 0  9996
2 25407  71.0125  42.5488 0008041 202.1661 157.9115 14.16170054412227
ISS (ZARYA)             
1 25544U 98067A   25328.54472231  .00014120  00000+0  26353-3 0  9997
2 25544  51.6316 232.5414 0003895 163.7073 196.4042 15.49046550540034
CZ-4B R/B               
1 25732U 99025C   25328.69769882  .00000085  00000+0  62278-4 0  9990
2 25732  98.6794  10.3791 0036026 287.3482 180.8220 14.18237004373280
OKEAN-O                 
1 25860U 99039A   25328.67213057  .00000811  00000+0  11378-3 0  9994
2 25860  97.9627  24.5282 0001087  70.1410 289.9919 14.80115456418853
SL-16 R/B               
1 25861U 99039B   25328.68461177  .00000724  00000+0  99087-4 0  9991
2 25861  98.0149  22.8324 0013706 235.1800 124.8124 14.81547607421318
DELTA 2 R/B             
1 25876U 99041E   25328.58523824  .00000938  00000+0  19088-3 0  9996
2 25876  51.7627   0.9132 0504902  38.2699 325.2963 14.11333724348183
HELIOS 1B               
1 25977U 99064A   25328.70508525  .00001913  00000+0  21926-3 0  9996
2 25977  98.1752 222.8371 0002423  67.5288 292.6183 14.87170864669655
TERRA                   
1 25994U 99068A   25328.73749020  .00000570  00000+0  12552-3 0  9992
2 25994  97.9772  21.0798 0003086 134.4990  12.8489 14.60921845379759
SL-16 R/B               
1 26070U 00006B   25328.38800505  .00000104  00000+0  76918-4 0  9999
2 26070  71.0017 319.2450 0017448 334.4641  25.5619 14.15801591333659
TITAN 4B R/B            
1 26474U 00047B   25328.64395807  .00003652  00000+0  23716-3 0  9993
2 26474  67.9902 335.6702 0040495 166.0913 194.1362 15.08589112377061
