CCSDS_OMM_VERS = 2.0
CREATION_DATE  = 
ORIGINATOR     = 

OBJECT_NAME    = ORBVIEW 2 (SEASTAR)
OBJECT_ID      = 1997-037A
CENTER_NAME    = EARTH
REF_FRAME      = TEME
TIME_SYSTEM    = UTC
MEAN_ELEMENT_THEORY = SGP/SGP4

EPOCH          = 2025-11-24T17:19:36.522336
MEAN_MOTION    = 14.35397103
ECCENTRICITY   = .0002541
INCLINATION    = 98.8454
RA_OF_ASC_NODE = 125.3440
ARG_OF_PERICENTER = 34.0379
MEAN_ANOMALY   = 326.0968

EPHEMERIS_TYPE = 0
CLASSIFICATION_TYPE = U
NORAD_CAT_ID   = 24883
ELEMENT_SET_NO = 999
REV_AT_EPOCH   = 49341
BSTAR          = .14108E-3
MEAN_MOTION_DOT = .358E-5
MEAN_MOTION_DDOT = 0

CCSDS_OMM_VERS = 2.0
CREATION_DATE  = 
ORIGINATOR     = 

OBJECT_NAME    = SL-16 R/B
OBJECT_ID      = 1998-043G
CENTER_NAME    = EARTH
REF_FRAME      = TEME
TIME_SYSTEM    = UTC
MEAN_ELEMENT_THEORY = SGP/SGP4

EPOCH          = 2025-11-24T16:42:03.983616
MEAN_MOTION    = 14.26018869
ECCENTRICITY   = .00092
INCLINATION    = 98.8097
RA_OF_ASC_NODE = 276.4157
ARG_OF_PERICENTER = 325.0861
MEAN_ANOMALY   = 34.9714

EPHEMERIS_TYPE = 0
CLASSIFICATION_TYPE = U
NORAD_CAT_ID   = 25400
ELEMENT_SET_NO = 999
REV_AT_EPOCH   = 42402
BSTAR          = .58606E-4
MEAN_MOTION_DOT = .95E-6
MEAN_MOTION_DDOT = 0

CCSDS_OMM_VERS = 2.0
CREATION_DATE  = 
ORIGINATOR     = 

OBJECT_NAME    = SL-16 R/B
OBJECT_ID      = 1998-045B
CENTER_NAME    = EARTH
REF_FRAME      = TEME
TIME_SYSTEM    = UTC
MEAN_ELEMENT_THEORY = SGP/SGP4

EPOCH          = 2025-11-24T14:40:58.743264
MEAN_MOTION    = 14.16170054
ECCENTRICITY   = .0008041
INCLINATION    = 71.0125
RA_OF_ASC_NODE = 42.5488
ARG_OF_PERICENTER = 202.1661
MEAN_ANOMALY   = 157.9115

EPHEMERIS_TYPE = 0
CLASSIFICATION_TYPE = U
NORAD_CAT_ID   = 25407
ELEMENT_SET_NO = 999
REV_AT_EPOCH   = 41222
BSTAR          = .15003E-3
MEAN_MOTION_DOT = .249E-5
MEAN_MOTION_DDOT = 0

CCSDS_OMM_VERS = 2.0
CREATION_DATE  = 
ORIGINATOR     = 

OBJECT_NAME    = ISS (ZARYA)
OBJECT_ID      = 1998-067A
CENTER_NAME    = EARTH
REF_FRAME      = TEME
TIME_SYSTEM    = UTC
MEAN_ELEMENT_THEORY = SGP/SGP4

EPOCH          = 2025-11-24T13:04:24.007584
MEAN_MOTION    = 15.49046550
ECCENTRICITY   = .0003895
INCLINATION    = 51.6316
RA_OF_ASC_NODE = 232.5414
ARG_OF_PERICENTER = 163.7073
MEAN_ANOMALY   = 196.4042

EPHEMERIS_TYPE = 0
CLASSIFICATION_TYPE = U
NORAD_CAT_ID   = 25544
ELEMENT_SET_NO = 999
REV_AT_EPOCH   = 54003
BSTAR          = .26353E-3
MEAN_MOTION_DOT = .1412E-3
MEAN_MOTION_DDOT = 0

CCSDS_OMM_VERS = 2.0
CREATION_DATE  = 
ORIGINATOR     = 

OBJECT_NAME    = CZ-4B R/B
OBJECT_ID      = 1999-025C
CENTER_NAME    = EARTH
REF_FRAME      = TEME
TIME_SYSTEM    = UTC
MEAN_ELEMENT_THEORY = SGP/SGP4

EPOCH          = 2025-11-24T16:44:41.178048
MEAN_MOTION    = 14.18237004
ECCENTRICITY   = .0036026
INCLINATION    = 98.6794
RA_OF_ASC_NODE = 10.3791
ARG_OF_PERICENTER = 287.3482
MEAN_ANOMALY   = 180.8220

EPHEMERIS_TYPE = 0
CLASSIFICATION_TYPE = U
NORAD_CAT_ID   = 25732
ELEMENT_SET_NO = 999
REV_AT_EPOCH   = 37328
BSTAR          = .62278E-4
MEAN_MOTION_DOT = .85E-6
MEAN_MOTION_DDOT = 0

CCSDS_OMM_VERS = 2.0
CREATION_DATE  = 
ORIGINATOR     = 

OBJECT_NAME    = OKEAN-O
OBJECT_ID      = 1999-039A
CENTER_NAME    = EARTH
REF_FRAME      = TEME
TIME_SYSTEM    = UTC
MEAN_ELEMENT_THEORY = SGP/SGP4

EPOCH          = 2025-11-24T16:07:52.081248
MEAN_MOTION    = 14.80115456
ECCENTRICITY   = .0001087
INCLINATION    = 97.9627
RA_OF_ASC_NODE = 24.5282
ARG_OF_PERICENTER = 70.1410
MEAN_ANOMALY   = 289.9919

EPHEMERIS_TYPE = 0
CLASSIFICATION_TYPE = U
NORAD_CAT_ID   = 25860
ELEMENT_SET_NO = 999
REV_AT_EPOCH   = 41885
BSTAR          = .11378E-3
MEAN_MOTION_DOT = .811E-5
MEAN_MOTION_DDOT = 0

CCSDS_OMM_VERS = 2.0
CREATION_DATE  = 
ORIGINATOR     = 

OBJECT_NAME    = SL-16 R/B
OBJECT_ID      = 1999-039B
CENTER_NAME    = EARTH
REF_FRAME      = TEME
TIME_SYSTEM    = UTC
MEAN_ELEMENT_THEORY = SGP/SGP4

EPOCH          = 2025-11-24T16:25:50.456928
MEAN_MOTION    = 14.81547607
ECCENTRICITY   = .0013706
INCLINATION    = 98.0149
RA_OF_ASC_NODE = 22.8324
ARG_OF_PERICENTER = 235.1800
MEAN_ANOMALY   = 124.8124

EPHEMERIS_TYPE = 0
CLASSIFICATION_TYPE = U
NORAD_CAT_ID   = 25861
ELEMENT_SET_NO = 999
REV_AT_EPOCH   = 42131
BSTAR          = .99087E-4
MEAN_MOTION_DOT = .724E-5
MEAN_MOTION_DDOT = 0

CCSDS_OMM_VERS = 2.0
CREATION_DATE  = 
ORIGINATOR     = 

OBJECT_NAME    = DELTA 2 R/B
OBJECT_ID      = 1999-041E
CENTER_NAME    = EARTH
REF_FRAME      = TEME
TIME_SYSTEM    = UTC
MEAN_ELEMENT_THEORY = SGP/SGP4

EPOCH          = 2025-11-24T14:02:44.583936
MEAN_MOTION    = 14.11333724
ECCENTRICITY   = .0504902
INCLINATION    = 51.7627
RA_OF_ASC_NODE = 0.9132
ARG_OF_PERICENTER = 38.2699
MEAN_ANOMALY   = 325.2963

EPHEMERIS_TYPE = 0
CLASSIFICATION_TYPE = U
NORAD_CAT_ID   = 25876
ELEMENT_SET_NO = 999
REV_AT_EPOCH   = 34818
BSTAR          = .19088E-3
MEAN_MOTION_DOT = .938E-5
MEAN_MOTION_DDOT = 0

CCSDS_OMM_VERS = 2.0
CREATION_DATE  = 
ORIGINATOR     = 

OBJECT_NAME    = HELIOS 1B
OBJECT_ID      = 1999-064A
CENTER_NAME    = EARTH
REF_FRAME      = TEME
TIME_SYSTEM    = UTC
MEAN_ELEMENT_THEORY = SGP/SGP4

EPOCH          = 2025-11-24T16:55:19.365600
MEAN_MOTION    = 14.87170864
ECCENTRICITY   = .0002423
INCLINATION    = 98.1752
RA_OF_ASC_NODE = 222.8371
ARG_OF_PERICENTER = 67.5288
MEAN_ANOMALY   = 292.6183

EPHEMERIS_TYPE = 0
CLASSIFICATION_TYPE = U
NORAD_CAT_ID   = 25977
ELEMENT_SET_NO = 999
REV_AT_EPOCH   = 66965
BSTAR          = .21926E-3
MEAN_MOTION_DOT = .1913E-4
MEAN_MOTION_DDOT = 0

CCSDS_OMM_VERS = 2.0
CREATION_DATE  = 
ORIGINATOR     = 

OBJECT_NAME    = TERRA
OBJECT_ID      = 1999-068A
CENTER_NAME    = EARTH
REF_FRAME      = TEME
TIME_SYSTEM    = UTC
MEAN_ELEMENT_THEORY = SGP/SGP4

EPOCH          = 2025-11-24T17:41:59.153280
MEAN_MOTION    = 14.60921845
ECCENTRICITY   = .0003086
INCLINATION    = 97.9772
RA_OF_ASC_NODE = 21.0798
ARG_OF_PERICENTER = 134.4990
MEAN_ANOMALY   = 12.8489

EPHEMERIS_TYPE = 0
CLASSIFICATION_TYPE = U
NORAD_CAT_ID   = 25994
ELEMENT_SET_NO = 999
REV_AT_EPOCH   = 37975
BSTAR          = .12552E-3
MEAN_MOTION_DOT = .57E-5
MEAN_MOTION_DDOT = 0

CCSDS_OMM_VERS = 2.0
CREATION_DATE  = 
ORIGINATOR     = 

OBJECT_NAME    = SL-16 R/B
OBJECT_ID      = 2000-006B
CENTER_NAME    = EARTH
REF_FRAME      = TEME
TIME_SYSTEM    = UTC
MEAN_ELEMENT_THEORY = SGP/SGP4

EPOCH          = 2025-11-24T09:18:43.636320
MEAN_MOTION    = 14.15801591
ECCENTRICITY   = .0017448
INCLINATION    = 71.0017
RA_OF_ASC_NODE = 319.2450
ARG_OF_PERICENTER = 334.4641
MEAN_ANOMALY   = 25.5619

EPHEMERIS_TYPE = 0
CLASSIFICATION_TYPE = U
NORAD_CAT_ID   = 26070
ELEMENT_SET_NO = 999
REV_AT_EPOCH   = 33365
BSTAR          = .76918E-4
MEAN_MOTION_DOT = .104E-5
MEAN_MOTION_DDOT = 0

CCSDS_OMM_VERS = 2.0
CREATION_DATE  = 
ORIGINATOR     = 

OBJECT_NAME    = TITAN 4B R/B
OBJECT_ID      = 2000-047B
CENTER_NAME    = EARTH
REF_FRAME      = TEME
TIME_SYSTEM    = UTC
MEAN_ELEMENT_THEORY = SGP/SGP4

EPOCH          = 2025-11-24T15:27:17.977248
MEAN_MOTION    = 15.08589112
ECCENTRICITY   = .0040495
INCLINATION    = 67.9902
RA_OF_ASC_NODE = 335.6702
ARG_OF_PERICENTER = 166.0913
MEAN_ANOMALY   = 194.1362

EPHEMERIS_TYPE = 0
CLASSIFICATION_TYPE = U
NORAD_CAT_ID   = 26474
ELEMENT_SET_NO = 999
REV_AT_EPOCH   = 37706
BSTAR          = .23716E-3
MEAN_MOTION_DOT = .3652E-4
MEAN_MOTION_DDOT = 0

